start=new Date('2021-10-25T00:00:00.000Z').valueOf();
sats=[{"INCLINATION":"53.0556","OBJECT_NAME":"STARLINK-2631","TLE_LINE1":"1 48366U 21038P   21297.34187284  .00001670  00000-0  13093-3 0  9992","RCS_SIZE":"LARGE","NORAD_CAT_ID":"48366","PERIOD":"95.592","PERIAPSIS":"546.311","OBJECT_TYPE":"PAYLOAD","SITE":"AFETR","MEAN_MOTION_DDOT":"0.0000000000000","REF_FRAME":"TEME","DECAY_DATE":null,"FILE":"3182197","SEMIMAJOR_AXIS":"6925.330","ELEMENT_SET_NO":"999","RA_OF_ASC_NODE":"322.3808","ECCENTRICITY":"0.00012760","TIME_SYSTEM":"UTC","GP_ID":"188069777","COUNTRY_CODE":"US","MEAN_ANOMALY":"272.9867","CLASSIFICATION_TYPE":"U","ARG_OF_PERICENTER":"87.1268","MEAN_MOTION_DOT":"0.00001670","MEAN_ELEMENT_THEORY":"SGP4","OBJECT_ID":"2021-038P","TLE_LINE2":"2 48366  53.0556 322.3808 0001276  87.1268 272.9867 15.06406078 26407","CENTER_NAME":"EARTH","EPHEMERIS_TYPE":"0","APOAPSIS":"548.079","BSTAR":"0.00013093000000","LAUNCH_DATE":"2021-05-04","REV_AT_EPOCH":"2640","EPOCH":"2021-10-24T08:12:17.813376","MEAN_MOTION":"15.06406078"},{"MEAN_MOTION_DOT":"0.00002355","ARG_OF_PERICENTER":"86.0763","GP_ID":"188105105","COUNTRY_CODE":"US","MEAN_ANOMALY":"274.0377","CLASSIFICATION_TYPE":"U","TIME_SYSTEM":"UTC","EPHEMERIS_TYPE":"0","CENTER_NAME":"EARTH","TLE_LINE2":"2 48367  53.0572 320.3195 0001324  86.0763 274.0377 15.06411108 26471","OBJECT_ID":"2021-038Q","MEAN_ELEMENT_THEORY":"SGP4","BSTAR":"0.00017686000000","APOAPSIS":"548.096","LAUNCH_DATE":"2021-05-04","REV_AT_EPOCH":"2647","EPOCH":"2021-10-24T19:15:46.247040","MEAN_MOTION":"15.06411108","OBJECT_NAME":"STARLINK-2643","INCLINATION":"53.0572","TLE_LINE1":"1 48367U 21038Q   21297.80261860  .00002355  00000-0  17686-3 0  9990","RCS_SIZE":"LARGE","PERIAPSIS":"546.263","PERIOD":"95.591","NORAD_CAT_ID":"48367","OBJECT_TYPE":"PAYLOAD","FILE":"3182768","DECAY_DATE":null,"REF_FRAME":"TEME","MEAN_MOTION_DDOT":"0.0000000000000","SITE":"AFETR","ECCENTRICITY":"0.00013240","SEMIMAJOR_AXIS":"6925.315","ELEMENT_SET_NO":"999","RA_OF_ASC_NODE":"320.3195"},{"BSTAR":"-0.00001772200000","APOAPSIS":"548.089","LAUNCH_DATE":"2021-05-04","GP_ID":"188070779","COUNTRY_CODE":"US","CLASSIFICATION_TYPE":"U","MEAN_ANOMALY":"280.3013","ARG_OF_PERICENTER":"79.8116","MEAN_MOTION_DOT":"-0.00000545","TIME_SYSTEM":"UTC","CENTER_NAME":"EARTH","EPHEMERIS_TYPE":"0","MEAN_ELEMENT_THEORY":"SGP4","OBJECT_ID":"2021-038R","TLE_LINE2":"2 48368  53.0550 321.7215 0001242  79.8116 280.3013 15.06395052 26439","EPOCH":"2021-10-24T11:43:15.452256","MEAN_MOTION":"15.06395052","REV_AT_EPOCH":"2643","RCS_SIZE":"LARGE","PERIAPSIS":"546.369","NORAD_CAT_ID":"48368","PERIOD":"95.592","OBJECT_NAME":"STARLINK-2623","INCLINATION":"53.0550","TLE_LINE1":"1 48368U 21038R   21297.48837329 -.00000545  00000-0 -17722-4 0  9997","REF_FRAME":"TEME","DECAY_DATE":null,"FILE":"3182197","SITE":"AFETR","MEAN_MOTION_DDOT":"0.0000000000000","ECCENTRICITY":"0.00012420","SEMIMAJOR_AXIS":"6925.364","RA_OF_ASC_NODE":"321.7215","ELEMENT_SET_NO":"999","OBJECT_TYPE":"PAYLOAD"},{"APOAPSIS":"548.139","BSTAR":"0.00013202000000","LAUNCH_DATE":"2021-05-04","TIME_SYSTEM":"UTC","ARG_OF_PERICENTER":"69.9766","MEAN_MOTION_DOT":"0.00001686","GP_ID":"188106608","COUNTRY_CODE":"US","CLASSIFICATION_TYPE":"U","MEAN_ANOMALY":"290.1369","TLE_LINE2":"2 48369  53.0533 320.3363 0001364  69.9766 290.1369 15.06406325 26479","OBJECT_ID":"2021-038S","MEAN_ELEMENT_THEORY":"SGP4","EPHEMERIS_TYPE":"0","CENTER_NAME":"EARTH","EPOCH":"2021-10-24T19:10:28.620768","MEAN_MOTION":"15.06406325","REV_AT_EPOCH":"2647","RCS_SIZE":"LARGE","PERIOD":"95.592","NORAD_CAT_ID":"48369","PERIAPSIS":"546.250","INCLINATION":"53.0533","OBJECT_NAME":"STARLINK-2641","TLE_LINE1":"1 48369U 21038S   21297.79894237  .00001686  00000-0  13202-3 0  9996","MEAN_MOTION_DDOT":"0.0000000000000","SITE":"AFETR","FILE":"3182768","REF_FRAME":"TEME","DECAY_DATE":null,"SEMIMAJOR_AXIS":"6925.329","ELEMENT_SET_NO":"999","RA_OF_ASC_NODE":"320.3363","ECCENTRICITY":"0.00013640","OBJECT_TYPE":"PAYLOAD"},{"SEMIMAJOR_AXIS":"6925.342","ELEMENT_SET_NO":"999","RA_OF_ASC_NODE":"320.3466","ECCENTRICITY":"0.00011370","MEAN_MOTION_DDOT":"0.0000000000000","SITE":"AFETR","FILE":"3182768","REF_FRAME":"TEME","DECAY_DATE":null,"OBJECT_TYPE":"PAYLOAD","PERIOD":"95.592","NORAD_CAT_ID":"48370","PERIAPSIS":"546.420","RCS_SIZE":"LARGE","TLE_LINE1":"1 48370U 21038T   21297.79525295  .00001473  00000-0  11777-3 0  9992","INCLINATION":"53.0556","OBJECT_NAME":"STARLINK-2621","MEAN_MOTION":"15.06402048","EPOCH":"2021-10-24T19:05:09.854880","REV_AT_EPOCH":"2647","LAUNCH_DATE":"2021-05-04","APOAPSIS":"547.995","BSTAR":"0.00011777000000","TLE_LINE2":"2 48370  53.0556 320.3466 0001137  79.1368 280.9749 15.06402048 26476","MEAN_ELEMENT_THEORY":"SGP4","OBJECT_ID":"2021-038T","EPHEMERIS_TYPE":"0","CENTER_NAME":"EARTH","TIME_SYSTEM":"UTC","ARG_OF_PERICENTER":"79.1368","MEAN_MOTION_DOT":"0.00001473","COUNTRY_CODE":"US","GP_ID":"188105356","CLASSIFICATION_TYPE":"U","MEAN_ANOMALY":"280.9749"},{"APOAPSIS":"548.079","BSTAR":"0.00012457000000","LAUNCH_DATE":"2021-05-04","TIME_SYSTEM":"UTC","CLASSIFICATION_TYPE":"U","GP_ID":"188105606","COUNTRY_CODE":"US","MEAN_ANOMALY":"278.7971","MEAN_MOTION_DOT":"0.00001574","ARG_OF_PERICENTER":"81.3156","MEAN_ELEMENT_THEORY":"SGP4","OBJECT_ID":"2021-038U","TLE_LINE2":"2 48371  53.0565 320.3676 0001217  81.3156 278.7971 15.06392581 26471","CENTER_NAME":"EARTH","EPHEMERIS_TYPE":"0","EPOCH":"2021-10-24T18:59:52.338336","MEAN_MOTION":"15.06392581","REV_AT_EPOCH":"2647","RCS_SIZE":"LARGE","NORAD_CAT_ID":"48371","PERIOD":"95.593","PERIAPSIS":"546.393","INCLINATION":"53.0565","OBJECT_NAME":"STARLINK-2589","TLE_LINE1":"1 48371U 21038U   21297.79157799  .00001574  00000-0  12457-3 0  9991","SITE":"AFETR","MEAN_MOTION_DDOT":"0.0000000000000","DECAY_DATE":null,"REF_FRAME":"TEME","FILE":"3182768","SEMIMAJOR_AXIS":"6925.371","RA_OF_ASC_NODE":"320.3676","ELEMENT_SET_NO":"999","ECCENTRICITY":"0.00012170","OBJECT_TYPE":"PAYLOAD"},{"PERIAPSIS":"546.276","NORAD_CAT_ID":"48372","PERIOD":"95.592","RCS_SIZE":"LARGE","TLE_LINE1":"1 48372U 21038V   21297.78789892  .00003068  00000-0  22479-3 0  9991","OBJECT_NAME":"STARLINK-2572","INCLINATION":"53.0557","ECCENTRICITY":"0.00013530","SEMIMAJOR_AXIS":"6925.348","ELEMENT_SET_NO":"999","RA_OF_ASC_NODE":"320.3814","REF_FRAME":"TEME","DECAY_DATE":null,"FILE":"3182768","SITE":"AFETR","MEAN_MOTION_DDOT":"0.0000000000000","OBJECT_TYPE":"PAYLOAD","LAUNCH_DATE":"2021-05-04","BSTAR":"0.00022479000000","APOAPSIS":"548.150","CENTER_NAME":"EARTH","EPHEMERIS_TYPE":"0","MEAN_ELEMENT_THEORY":"SGP4","OBJECT_ID":"2021-038V","TLE_LINE2":"2 48372  53.0557 320.3814 0001353  89.2170 270.8974 15.06400228 26475","MEAN_ANOMALY":"270.8974","GP_ID":"188105857","COUNTRY_CODE":"US","CLASSIFICATION_TYPE":"U","MEAN_MOTION_DOT":"0.00003068","ARG_OF_PERICENTER":"89.2170","TIME_SYSTEM":"UTC","MEAN_MOTION":"15.06400228","EPOCH":"2021-10-24T18:54:34.466688","REV_AT_EPOCH":"2647"},{"OBJECT_NAME":"STARLINK-2609","INCLINATION":"53.0579","TLE_LINE1":"1 48373U 21038W   21297.78418767  .00001566  00000-0  12402-3 0  9998","RCS_SIZE":"LARGE","PERIAPSIS":"546.281","NORAD_CAT_ID":"48373","PERIOD":"95.592","OBJECT_TYPE":"PAYLOAD","DECAY_DATE":null,"REF_FRAME":"TEME","FILE":"3182768","SITE":"AFETR","MEAN_MOTION_DDOT":"0.0000000000000","ECCENTRICITY":"0.00013340","SEMIMAJOR_AXIS":"6925.339","RA_OF_ASC_NODE":"320.4052","ELEMENT_SET_NO":"999","COUNTRY_CODE":"US","GP_ID":"188106108","CLASSIFICATION_TYPE":"U","MEAN_ANOMALY":"283.0567","ARG_OF_PERICENTER":"77.0571","MEAN_MOTION_DOT":"0.00001566","TIME_SYSTEM":"UTC","CENTER_NAME":"EARTH","EPHEMERIS_TYPE":"0","OBJECT_ID":"2021-038W","MEAN_ELEMENT_THEORY":"SGP4","TLE_LINE2":"2 48373  53.0579 320.4052 0001334  77.0571 283.0567 15.06402997 26473","BSTAR":"0.00012402000000","APOAPSIS":"548.128","LAUNCH_DATE":"2021-05-04","REV_AT_EPOCH":"2647","EPOCH":"2021-10-24T18:49:13.814688","MEAN_MOTION":"15.06402997"},{"RCS_SIZE":"LARGE","PERIAPSIS":"546.303","NORAD_CAT_ID":"48374","PERIOD":"95.593","OBJECT_NAME":"STARLINK-2604","INCLINATION":"53.0571","TLE_LINE1":"1 48374U 21038X   21297.78050667 -.00000581  00000-0 -20143-4 0  9990","DECAY_DATE":null,"REF_FRAME":"TEME","FILE":"3182768","SITE":"AFETR","MEAN_MOTION_DDOT":"0.0000000000000","ECCENTRICITY":"0.00013420","ELEMENT_SET_NO":"999","SEMIMAJOR_AXIS":"6925.368","RA_OF_ASC_NODE":"320.4131","OBJECT_TYPE":"PAYLOAD","BSTAR":"-0.00002014300000","APOAPSIS":"548.162","LAUNCH_DATE":"2021-05-04","GP_ID":"188104856","COUNTRY_CODE":"US","CLASSIFICATION_TYPE":"U","MEAN_ANOMALY":"277.7378","ARG_OF_PERICENTER":"82.3763","MEAN_MOTION_DOT":"-0.00000581","TIME_SYSTEM":"UTC","CENTER_NAME":"EARTH","EPHEMERIS_TYPE":"0","MEAN_ELEMENT_THEORY":"SGP4","OBJECT_ID":"2021-038X","TLE_LINE2":"2 48374  53.0571 320.4131 0001342  82.3763 277.7378 15.06393732 26471","EPOCH":"2021-10-24T18:43:55.776288","MEAN_MOTION":"15.06393732","REV_AT_EPOCH":"2647"},{"PERIOD":"95.593","NORAD_CAT_ID":"48375","PERIAPSIS":"546.359","RCS_SIZE":"LARGE","TLE_LINE1":"1 48375U 21038Y   21297.77681754  .00000593  00000-0  58722-4 0  9992","INCLINATION":"53.0571","OBJECT_NAME":"STARLINK-2603","SEMIMAJOR_AXIS":"6925.367","ELEMENT_SET_NO":"999","RA_OF_ASC_NODE":"320.4360","ECCENTRICITY":"0.00012600","MEAN_MOTION_DDOT":"0.0000000000000","SITE":"AFETR","FILE":"3182768","DECAY_DATE":null,"REF_FRAME":"TEME","OBJECT_TYPE":"PAYLOAD","LAUNCH_DATE":"2021-05-04","APOAPSIS":"548.104","BSTAR":"0.00005872200000","TLE_LINE2":"2 48375  53.0571 320.4360 0001260  80.6765 279.4367 15.06394102 26477","MEAN_ELEMENT_THEORY":"SGP4","OBJECT_ID":"2021-038Y","EPHEMERIS_TYPE":"0","CENTER_NAME":"EARTH","TIME_SYSTEM":"UTC","ARG_OF_PERICENTER":"80.6765","MEAN_MOTION_DOT":"0.00000593","CLASSIFICATION_TYPE":"U","GP_ID":"188105106","COUNTRY_CODE":"US","MEAN_ANOMALY":"279.4367","MEAN_MOTION":"15.06394102","EPOCH":"2021-10-24T18:38:37.035456","REV_AT_EPOCH":"2647"}];
